JY1SAT (JO-97)          
1 43803U 18099AX  26068.68634132  .00017774  00000+0  60804-3 0  9996
2 43803  97.4249 131.3625 0004723 256.6795 103.3919 15.30302628398390
STARLINK-32857          
1 62949U 25029B   26068.75859580  .00032377  00000+0  11005-2 0  9997
2 62949  53.1597 229.6251 0001132  71.1515 288.9609 15.30199584 61404
